{
  "norad_id": 58493,
  "name": "STARLINK-30985",
  "history": [
    {
      "epoch": "2026-03-28T16:23:29.305248Z",
      "apogee_km": 484.2793451319276,
      "perigee_km": 481.8156310059521,
      "latitude_deg": 3.330304271745775e-05,
      "longitude_deg": -115.81637943463708,
      "height_km": 483.0527308146689,
      "semi_major_axis_km": 6861.18448806894,
      "eccentricity": 0.00017954,
      "inclination_deg": 43.004,
      "raan_deg": 316.1556,
      "arg_perigee_deg": 259.3415,
      "mean_anomaly_deg": 100.7235,
      "mean_motion_rev_day": 15.27580537
    },
    {
      "epoch": "2026-03-29T00:14:16.222272Z",
      "apogee_km": 484.23265838323823,
      "perigee_km": 481.85731717906856,
      "latitude_deg": 9.750388670657438e-06,
      "longitude_deg": 124.32076893806465,
      "height_km": 482.9696388583711,
      "semi_major_axis_km": 6861.181987781153,
      "eccentricity": 0.0001731,
      "inclination_deg": 43.0038,
      "raan_deg": 314.3105,
      "arg_perigee_deg": 262.876,
      "mean_anomaly_deg": 97.1895,
      "mean_motion_rev_day": 15.27581372
    },
    {
      "epoch": "2026-03-29T23:46:36.809184Z",
      "apogee_km": 484.4441829260795,
      "perigee_km": 481.6640282900871,
      "latitude_deg": -1.2735335192686438e-05,
      "longitude_deg": 124.72835214863652,
      "height_km": 483.0407850136153,
      "semi_major_axis_km": 6861.1911056080835,
      "eccentricity": 0.0002026,
      "inclination_deg": 43.0047,
      "raan_deg": 308.7706,
      "arg_perigee_deg": 261.3524,
      "mean_anomaly_deg": 98.7098,
      "mean_motion_rev_day": 15.27578327
    },
    {
      "epoch": "2026-03-29T23:46:36.810048Z",
      "apogee_km": 484.44438876181266,
      "perigee_km": 481.6638224543549,
      "latitude_deg": -1.0403839479827876e-05,
      "longitude_deg": 124.7283510247785,
      "height_km": 483.04081595816285,
      "semi_major_axis_km": 6861.1911056080835,
      "eccentricity": 0.00020263,
      "inclination_deg": 43.0047,
      "raan_deg": 308.7706,
      "arg_perigee_deg": 261.3524,
      "mean_anomaly_deg": 98.7098,
      "mean_motion_rev_day": 15.27578327
    },
    {
      "epoch": "2026-03-30T07:37:23.664000Z",
      "apogee_km": 484.45784947752327,
      "perigee_km": 481.64325312022993,
      "latitude_deg": 6.250506842406252e-06,
      "longitude_deg": 4.864506279301563,
      "height_km": 483.0220705735704,
      "semi_major_axis_km": 6861.187551298876,
      "eccentricity": 0.00020511,
      "inclination_deg": 43.0048,
      "raan_deg": 306.9242,
      "arg_perigee_deg": 262.084,
      "mean_anomaly_deg": 97.9779,
      "mean_motion_rev_day": 15.27579514
    },
    {
      "epoch": "2026-03-30T21:44:48.385248Z",
      "apogee_km": 484.34587894129254,
      "perigee_km": 481.76181724408343,
      "latitude_deg": 3.0167582755541395e-05,
      "longitude_deg": 149.10869434448387,
      "height_km": 483.0977241203847,
      "semi_major_axis_km": 6861.190848092688,
      "eccentricity": 0.00018831,
      "inclination_deg": 43.0041,
      "raan_deg": 303.6014,
      "arg_perigee_deg": 258.1008,
      "mean_anomaly_deg": 101.9633,
      "mean_motion_rev_day": 15.27578413
    },
    {
      "epoch": "2026-03-31T13:26:23.879904Z",
      "apogee_km": 484.53597138068835,
      "perigee_km": 481.75728873618664,
      "latitude_deg": 9.069393165538423e-06,
      "longitude_deg": -90.62671819133155,
      "height_km": 483.24311088301823,
      "semi_major_axis_km": 6861.283630058438,
      "eccentricity": 0.00020249,
      "inclination_deg": 43.0041,
      "raan_deg": 299.9084,
      "arg_perigee_deg": 256.7298,
      "mean_anomaly_deg": 103.3328,
      "mean_motion_rev_day": 15.27547428
    },
    {
      "epoch": "2026-04-01T12:58:44.433120Z",
      "apogee_km": 484.4287805459544,
      "perigee_km": 481.8118969969464,
      "latitude_deg": -2.950881802204419e-05,
      "longitude_deg": -90.22091056977685,
      "height_km": 483.4340474713775,
      "semi_major_axis_km": 6861.25733877145,
      "eccentricity": 0.0001907,
      "inclination_deg": 43.004,
      "raan_deg": 294.3666,
      "arg_perigee_deg": 245.8001,
      "mean_anomaly_deg": 114.2651,
      "mean_motion_rev_day": 15.27556208
    },
    {
      "epoch": "2026-04-02T14:05:13.526304Z",
      "apogee_km": 484.22570976438146,
      "perigee_km": 481.86683495534453,
      "latitude_deg": -4.325901558229054e-05,
      "longitude_deg": -113.78169811951649,
      "height_km": 483.21007121142304,
      "semi_major_axis_km": 6861.183272359863,
      "eccentricity": 0.0001719,
      "inclination_deg": 43.0042,
      "raan_deg": 288.4582,
      "arg_perigee_deg": 250.871,
      "mean_anomaly_deg": 109.1955,
      "mean_motion_rev_day": 15.27580943
    },
    {
      "epoch": "2026-04-02T20:21:50.966784Z",
      "apogee_km": 484.0982415491326,
      "perigee_km": 481.9701806862913,
      "latitude_deg": -1.4659348296505562e-05,
      "longitude_deg": 150.32744058503857,
      "height_km": 483.2548530453287,
      "semi_major_axis_km": 6861.171211117711,
      "eccentricity": 0.00015508,
      "inclination_deg": 43.0038,
      "raan_deg": 286.9811,
      "arg_perigee_deg": 245.3624,
      "mean_anomaly_deg": 114.7066,
      "mean_motion_rev_day": 15.27584971
    },
    {
      "epoch": "2026-04-03T19:54:11.902752Z",
      "apogee_km": 484.7280655651639,
      "perigee_km": 481.4305650040378,
      "latitude_deg": 4.0287992102527534e-05,
      "longitude_deg": 150.73364752723643,
      "height_km": 483.276567990553,
      "semi_major_axis_km": 6861.216315284601,
      "eccentricity": 0.0002403,
      "inclination_deg": 43.0025,
      "raan_deg": 281.4412,
      "arg_perigee_deg": 255.2553,
      "mean_anomaly_deg": 104.8033,
      "mean_motion_rev_day": 15.27569908
    },
    {
      "epoch": "2026-04-04T11:35:46.716576Z",
      "apogee_km": 484.5908347736158,
      "perigee_km": 481.61401743620627,
      "latitude_deg": -3.045710391820822e-06,
      "longitude_deg": -88.99514552056121,
      "height_km": 482.86828009142204,
      "semi_major_axis_km": 6861.239426104911,
      "eccentricity": 0.00021693,
      "inclination_deg": 43.0021,
      "raan_deg": 277.752,
      "arg_perigee_deg": 270.4497,
      "mean_anomaly_deg": 89.6106,
      "mean_motion_rev_day": 15.2756219
    },
    {
      "epoch": "2026-04-05T12:42:15.410592Z",
      "apogee_km": 484.6811132251769,
      "perigee_km": 481.3201163531958,
      "latitude_deg": 3.4255562978413375e-06,
      "longitude_deg": -112.55294616950094,
      "height_km": 482.75409011166124,
      "semi_major_axis_km": 6861.137614789186,
      "eccentricity": 0.00024493,
      "inclination_deg": 42.9996,
      "raan_deg": 271.8449,
      "arg_perigee_deg": 270.8175,
      "mean_anomaly_deg": 89.2396,
      "mean_motion_rev_day": 15.27596191
    },
    {
      "epoch": "2026-04-05T18:58:54.005376Z",
      "apogee_km": 484.9836633866307,
      "perigee_km": 481.1836449395296,
      "latitude_deg": -5.935740741499811e-05,
      "longitude_deg": 151.54917166889467,
      "height_km": 482.47461467094536,
      "semi_major_axis_km": 6861.22065416308,
      "eccentricity": 0.00027692,
      "inclination_deg": 43.0013,
      "raan_deg": 270.3657,
      "arg_perigee_deg": 281.7498,
      "mean_anomaly_deg": 78.3042,
      "mean_motion_rev_day": 15.27568459
    },
    {
      "epoch": "2026-04-07T11:46:58.319328Z",
      "apogee_km": 484.3990550202916,
      "perigee_km": 481.9012720412802,
      "latitude_deg": 3.37282287290605e-05,
      "longitude_deg": -111.746153832485,
      "height_km": 483.07547513655265,
      "semi_major_axis_km": 6861.287163530786,
      "eccentricity": 0.00018202,
      "inclination_deg": 43.0001,
      "raan_deg": 260.7639,
      "arg_perigee_deg": 263.1806,
      "mean_anomaly_deg": 96.8839,
      "mean_motion_rev_day": 15.27546248
    },
    {
      "epoch": "2026-04-07T18:03:36.272160Z",
      "apogee_km": 484.0224502984156,
      "perigee_km": 482.27145063425723,
      "latitude_deg": -1.4494643379244932e-05,
      "longitude_deg": 152.36076135492112,
      "height_km": 483.1223850038705,
      "semi_major_axis_km": 6861.283950466336,
      "eccentricity": 0.0001276,
      "inclination_deg": 42.9987,
      "raan_deg": 259.2868,
      "arg_perigee_deg": 256.8597,
      "mean_anomaly_deg": 103.2112,
      "mean_motion_rev_day": 15.27547321
    },
    {
      "epoch": "2026-04-08T11:19:20.268768Z",
      "apogee_km": 484.0239236252455,
      "perigee_km": 482.1963618363079,
      "latitude_deg": 1.559762161623703e-05,
      "longitude_deg": -111.34316217253286,
      "height_km": 483.08812415244284,
      "semi_major_axis_km": 6861.247142730776,
      "eccentricity": 0.00013318,
      "inclination_deg": 43.0005,
      "raan_deg": 255.2251,
      "arg_perigee_deg": 257.2714,
      "mean_anomaly_deg": 102.7989,
      "mean_motion_rev_day": 15.27559613
    },
    {
      "epoch": "2026-04-09T17:08:18.286656Z",
      "apogee_km": 483.9002003406076,
      "perigee_km": 482.07376913586995,
      "latitude_deg": 5.633491865171505e-06,
      "longitude_deg": 153.17457791679195,
      "height_km": 482.9379446855191,
      "semi_major_axis_km": 6861.1239847382385,
      "eccentricity": 0.0001331,
      "inclination_deg": 42.9997,
      "raan_deg": 248.2091,
      "arg_perigee_deg": 258.9906,
      "mean_anomaly_deg": 101.0796,
      "mean_motion_rev_day": 15.27600743
    },
    {
      "epoch": "2026-04-09T17:08:18.287520Z",
      "apogee_km": 483.900474785567,
      "perigee_km": 482.0734946909106,
      "latitude_deg": 8.708861648685159e-06,
      "longitude_deg": 153.17457758669127,
      "height_km": 482.9379970903541,
      "semi_major_axis_km": 6861.1239847382385,
      "eccentricity": 0.00013314,
      "inclination_deg": 42.9997,
      "raan_deg": 248.2091,
      "arg_perigee_deg": 258.9906,
      "mean_anomaly_deg": 101.0796,
      "mean_motion_rev_day": 15.27600743
    }
  ]
}